satname,norad_id,inclination_deg,eccentricity,mean_motion_rev_per_day,perigee_km,apogee_km,l1,l2
STARLINK-1184,45098,53.0534,0.0002695,15.08317085,539.4773930348056,543.2069923196586,1 45098U 20006BG  26026.42180564  .00034724  00000+0  22202-2 0  9999,2 45098  53.0534  76.0593 0002695  17.4736 342.6347 15.08317085330652
STARLINK-1193,45100,53.0548,0.0001667,15.44154616,432.7276384743691,434.99875934068496,1 45100U 20006BJ  26026.91670139  .00127941  00000+0  27123-2 0  9990,2 45100  53.0548  70.5887 0001667  84.8381 323.2727 15.44154616  5798
STARLINK-1143,45179,53.0486,0.000217,15.5410627,403.27995024402117,406.223723999331,1 45179U 20012B   26026.91670139  .00119916  00000+0  17951-2 0  9994,2 45179  53.0486 172.7838 0002170 217.5321  46.8652 15.54106270  5862
STARLINK-1202,45183,53.1512,0.0001634,15.29172541,477.16425510567296,479.4049336827211,1 45183U 20012F   26026.91670139  .00116854  00000+0  40210-2 0  9991,2 45183  53.1512 233.2230 0001634  80.6551 115.1114 15.29172541  5785
STARLINK-1216,45185,53.147,0.0001416,15.27508719,482.29097112136424,484.2341194725923,1 45185U 20012H   26026.91670139  .01584786  00000+0  52815-1 0  9990,2 45185  53.1470 233.2373 0001416  92.1894 135.9068 15.27508719  5735
STARLINK-1225,45187,53.1295,0.0001079,15.23356443,494.9834662400863,496.4668456933441,1 45187U 20012K   26026.91670139  .01808464  00000+0  68417-1 0  9999,2 45187  53.1295 233.6157 0001079  72.5238 206.8313 15.23356443  5782
STARLINK-1230,45189,53.1245,0.0001281,15.2246247,497.5348431414868,499.2966159507969,1 45189U 20012M   26026.91670139  .01685037  00000+0  65874-1 0  9994,2 45189  53.1245 233.6422 0001281  89.9302 155.2531 15.22462470  5677
STARLINK-1234,45190,53.0462,0.0011194,15.52461189,401.94456652792815,417.1408238294953,1 45190U 20012N   26026.74549111  .00043205  00000+0  69633-3 0  9995,2 45190  53.0462 168.8208 0011194 166.2142 193.9175 15.52461189329340
STARLINK-1269,45197,53.1294,0.000104,15.23430011,494.7889982938441,496.2187155920892,1 45197U 20012V   26026.91670139  .01560351  00000+0  58818-1 0  9994,2 45197  53.1294 233.5185 0001040 106.5014 146.0556 15.23430011  5474
STARLINK-1154,45198,53.0517,9.05e-05,15.39172418,447.93745634484094,449.1730876460724,1 45198U 20012W   26026.77203977  .00020787  00000+0  53596-3 0  9994,2 45198  53.0517 208.9607 0000905 240.3539 119.7375 15.39172418328829
STARLINK-1199,45201,53.0546,0.000163,15.06414437,546.0384863632771,548.2961355686521,1 45201U 20012Z   26025.94068702  .00005261  00000+0  37171-3 0  9993,2 45201  53.0546 218.5262 0001630  82.7248 277.3926 15.06414437328671
STARLINK-1209,45206,53.0487,0.0014143,15.43154952,427.16640922372153,446.44315354654736,1 45206U 20012AE  26026.68544705  .00031645  00000+0  70728-3 0  9992,2 45206  53.0487 174.1342 0014143 155.6119 204.5558 15.43154952328415
STARLINK-1210,45207,53.0135,0.0007985,15.86065006,307.98448246845874,318.670751461751,1 45207U 20012AF  26026.91670139  .00275571  00000+0  10589-2 0  9996,2 45207  53.0135 114.2981 0007985 338.1859 259.5705 15.86065006  5925
STARLINK-1231,45212,53.0482,0.0001905,15.17668399,511.57666029115717,514.2021413498696,1 45212U 20012AL  26025.92062589  .00047117  00000+0  23114-2 0  9997,2 45212  53.0482 211.6666 0001905 133.3824 226.7329 15.17668399328723
STARLINK-1271,45217,53.0528,0.0001382,15.06393445,546.2745621948616,548.188734089209,1 45217U 20012AR  26026.52305269 -.00002786  00000+0 -16827-3 0  9993,2 45217  53.0528 215.9140 0001382  96.0376 264.0771 15.06393445328764
STARLINK-1191,45222,53.1569,0.0001467,15.30885828,472.16298870292576,474.17316161197687,1 45222U 20012AW  26026.91670139  .00161103  00000+0  52227-2 0  9993,2 45222  53.1569 193.0309 0001467  50.1891 130.7050 15.30885828  5529
STARLINK-1212,45223,53.0526,3.76e-05,15.41491116,441.4513596426568,441.9642119705495,1 45223U 20012AX  26026.91670139  .00161933  00000+0  37345-2 0  9999,2 45223  53.0526 189.2441 0000376 284.7209 227.0461 15.41491116  5859
STARLINK-1215,45225,53.1592,6.39e-05,15.29356129,477.2977843483495,478.17396490172723,1 45225U 20012AZ  26025.86996917 -.00004610  00000+0 -14753-3 0  9998,2 45225  53.1592 197.1508 0000639  64.6119 295.4948 15.29356129328929
STARLINK-1221,45227,53.0661,0.0002308,15.40228624,443.85911593310266,447.0088763049116,1 45227U 20012BB  26026.62829954  .00031002  00000+0  76634-3 0  9990,2 45227  53.0661 108.6794 0002308 231.4693 128.6104 15.40228624330225
STARLINK-1222,45228,53.0561,9.48e-05,15.46150444,427.3545945619335,428.64503810231054,1 45228U 20012BC  26026.84624423  .00030706  00000+0  62242-3 0  9999,2 45228  53.0561 182.9378 0000948 231.5240 128.5681 15.46150444329143
STARLINK-1226,45229,53.1587,0.0001386,15.30995014,471.8927824492903,473.7918739190636,1 45229U 20012BD  26026.91670139  .00056784  00000+0  18682-2 0  9995,2 45229  53.1587 192.8311 0001386  97.7899 351.3781 15.30995014  5780
STARLINK-1227,45230,53.1402,0.0001431,15.26502024,485.29654544580353,487.2611412601709,1 45230U 20012BE  26026.91670139  .01288379  00000+0  44447-1 0  9992,2 45230  53.1402 193.0987 0001431  87.8281 234.8003 15.26502024  5733
STARLINK-1246,45235,53.1317,0.0001506,15.24158725,492.2779422943822,494.3476229689113,1 45235U 20012BK  26026.91670139  .00809142  00000+0  30305-1 0  9991,2 45235  53.1317 233.1203 0001506 109.1955 123.9105 15.24158725  5845
STARLINK-1270,45237,53.0504,0.000145,15.40672307,443.13467019494965,445.1131258553769,1 45237U 20012BM  26026.91670139  .00151245  00000+0  35897-2 0  9999,2 45237  53.0504 186.0563 0001450 200.4538 344.6917 15.40672307  5825
STARLINK-1279,45360,53.0485,0.0007643,15.48533197,415.8196234886036,426.2128090950273,1 45360U 20019A   26026.03070060  .00111152  00000+0  20307-2 0  9996,2 45360  53.0485 304.3392 0007643  70.5139 289.6693 15.48533197324046
STARLINK-1301,45361,53.0476,0.0009811,15.54281791,397.5869869500575,410.89536941128335,1 45361U 20019B   26026.04873156  .00123950  00000+0  18393-2 0  9996,2 45361  53.0476 311.7121 0009811  63.3988 296.8025 15.54281791323955
STARLINK-1262,45366,53.056,0.0001306,15.06386996,546.3469578852519,548.1558693388879,1 45366U 20019G   26026.16368675  .00001127  00000+0  94544-4 0  9994,2 45366  53.0560 357.5240 0001306 107.6532 252.4600 15.06386996323320
STARLINK-1273,45367,53.0561,0.0001355,15.30520769,473.32897883019996,475.18597773381407,1 45367U 20019H   26026.91670139  .01494676  00000+0  45687-1 0  9996,2 45367  53.0561 352.6129 0001355 107.9223 327.7216 15.30520769  5790
STARLINK-1276,45368,53.0557,0.0001576,15.0639606,546.1321966612941,548.3150703329729,1 45368U 20019J   26026.15631085 -.00001931  00000+0 -11075-3 0  9995,2 45368  53.0557 357.5588 0001576  87.2629 272.8540 15.06396060323324
STARLINK-1277,45369,53.0547,5.97e-05,15.42328558,438.8319062061928,439.6459008890761,1 45369U 20019K   26026.91670139  .00068419  00000+0  15588-2 0  9997,2 45369  53.0547 351.6439 0000597  40.6099 327.3520 15.42328558  5788
STARLINK-1281,45370,53.0541,0.0001204,15.06404039,546.3653685367053,548.0329894886108,1 45370U 20019L   26026.60967339  .00002699  00000+0  20000-3 0  9990,2 45370  53.0541 355.5241 0001204  83.3325 276.7801 15.06404039323398
STARLINK-1300,45374,53.056,0.0001447,15.06387659,546.2472781746537,548.2514849934851,1 45374U 20019Q   26026.16736461 -.00004545  00000+0 -28650-3 0  9998,2 45374  53.0560 357.5079 0001447  84.3135 275.8019 15.06387659323325
STARLINK-1302,45375,53.0558,0.0001346,15.3886336,448.5502725432016,450.3882641506407,1 45375U 20019R   26026.91670139  .01260053  00000+0  29604-1 0  9996,2 45375  53.0558 351.1058 0001346  74.8477  72.4140 15.38863360  5732
STARLINK-1304,45376,53.0547,0.0004731,15.41828918,437.4856376423113,443.93763222068355,1 45376U 20019S   26026.91670139  .00139991  00000+0  32022-2 0  9991,2 45376  53.0547 348.3338 0004731  85.7943 294.1437 15.41828918  5804
STARLINK-1305,45377,53.0507,0.000579,15.44603555,428.5998126220138,436.48658028951104,1 45377U 20019T   26026.12061690  .00034447  00000+0  73422-3 0  9991,2 45377  53.0507 336.1681 0005790  29.3149 330.8180 15.44603555323622
STARLINK-1319,45379,53.052,0.0006264,15.50319788,411.53592558311175,420.04735938641716,1 45379U 20019V   26026.91670139  .00081326  00000+0  14032-2 0  9993,2 45379  53.0520 331.9568 0006264  51.1593 297.3613 15.50319788  5960
STARLINK-1266,45383,53.0538,0.0001306,15.40478984,443.8035991018978,445.58572273173013,1 45383U 20019Z   26026.91670139  .00036247  00000+0  88641-3 0  9998,2 45383  53.0538 331.1986 0001306 108.1316 140.1470 15.40478984  5787
STARLINK-1267,45384,53.055,0.0007651,15.42060337,434.8128297598805,445.2459879987464,1 45384U 20019AA  26026.85800291  .00087855  00000+0  20101-2 0  9993,2 45384  53.0550 326.5087 0007651  84.0537 276.1339 15.42060337323810
STARLINK-1272,45386,53.0493,0.0007209,15.4766983,418.6412522799974,428.44791678857837,1 45386U 20019AC  26026.81152400  .00111885  00000+0  21065-2 0  9994,2 45386  53.0493 311.3641 0007209  50.6772 309.4873 15.47669830324020
STARLINK-1274,45387,53.0311,0.0010175,15.41009734,436.18733424376023,450.0686084604604,1 45387U 20019AD  26026.66667824  .00091876  00000+0  21737-2 0  9992,2 45387  53.0311 302.9019 0010175  93.0224 350.0469 15.41009734  5893
STARLINK-1280,45388,53.0497,0.0006696,15.56020972,394.6483169050125,403.7245084192491,1 45388U 20019AE  26026.91670139  .00090677  00000+0  12708-2 0  9990,2 45388  53.0497 326.3159 0006696  53.2851 348.1269 15.56020972  5711
STARLINK-1283,45389,53.0509,0.0012031,15.4727964,416.50354766576766,432.87250524442334,1 45389U 20019AF  26026.08300761  .00121645  00000+0  23140-2 0  9992,2 45389  53.0509 314.9886 0012031  84.9813 275.2567 15.47279640323919
STARLINK-1284,45390,53.0545,0.0001694,15.4411444,432.82738557830817,435.1353312781439,1 45390U 20019AG  26026.91670139  .00067449  00000+0  14474-2 0  9996,2 45390  53.0545 330.8212 0001694  93.6080 327.1068 15.44114440  5785
